[
    {
        "Altitude(m)": 604983.0529777331,
        "Argument of Periapsis(deg)": 0.0,
        "Eccentricity": 0.0,
        "Inclination(deg)": 60.0,
        "Latitude(deg)": -0.09265505042093897,
        "Longitude(deg)": -164.9160837863263,
        "Mean Anomaly(deg)": 179.99999999999997,
        "RAAN(deg)": 114.99999999999999,
        "Satellite Name": "Test1 517",
        "Satellite Number": 517,
        "Semi-Major Axis(m)": 6980739.136638005,
        "Time(s)": 0
    },
    {
        "Altitude(m)": 605055.3324921648,
        "Argument of Periapsis(deg)": 0.00010418945913296404,
        "Eccentricity": 0.0,
        "Inclination(deg)": 60.0,
        "Latitude(deg)": -0.6330654731848576,
        "Longitude(deg)": -164.64795996709398,
        "Mean Anomaly(deg)": 180.62010614546185,
        "RAAN(deg)": 114.99957995086024,
        "Satellite Name": "Test1 517",
        "Satellite Number": 517,
        "Semi-Major Axis(m)": 6980739.136638005,
        "Time(s)": 10
    }
]